NORAD_CAT_ID,OBJECT_NAME,OBJECT_TYPE,EPOCH,MEAN_MOTION,ECCENTRICITY,INCLINATION,RA_OF_ASC_NODE,ARG_OF_PERICENTER,MEAN_ANOMALY,BSTAR,MEAN_MOTION_DOT,MEAN_MOTION_DDOT,TLE_LINE0,TLE_LINE1,TLE_LINE2,SEMIMAJOR_AXIS,PERIOD,APOGEE,PERIGEE,DECAYED
52455.0,STARLINK-3890,PAYLOAD,2023-11-13 03:50:35,15.08846755,0.0001523,53.2177,273.8306,85.4076,274.709,5.5095e-05,5.89e-06,0.0,0 STARLINK-3890,1 52455U 22049E   23317.16012828  .00000589  00000-0  55095-4 0  9992,2 52455  53.2177 273.8306 0001523  85.4076 274.7090 15.08846755 84323,6917.86,95.437,540.778,538.671,0.0
52455.0,STARLINK-3890,PAYLOAD,2023-11-13 07:01:21,15.08848511,0.0001641,53.2174,273.2315,88.5427,271.5753,0.00014051,1.949e-05,0.0,0 STARLINK-3890,1 52455U 22049E   23317.29260478  .00001949  00000-0  14051-3 0  9999,2 52455  53.2174 273.2315 0001641  88.5427 271.5753 15.08848511 84186,6917.854,95.437,540.855,538.584,0.0
52455.0,STARLINK-3890,PAYLOAD,2023-11-14 06:52:08,15.08848152,0.0001505,53.2166,268.7736,99.3029,260.8134,8.9214e-05,1.132e-05,0.0,0 STARLINK-3890,1 52455U 22049E   23318.28620452  .00001132  00000-0  89214-4 0  9999,2 52455  53.2166 268.7736 0001505  99.3029 260.8134 15.08848152 84499,6917.855,95.437,540.762,538.679,0.0
52455.0,STARLINK-3890,PAYLOAD,2023-11-14 21:10:37,15.088353,0.0001487,53.2172,266.099,95.8356,264.2806,5.105e-06,-2.07e-06,0.0,0 STARLINK-3890,1 52455U 22049E   23318.88237301 -.00000207  00000-0  51050-5 0  9993,2 52455  53.2172 266.0990 0001487  95.8356 264.2806 15.08835300 84420,6917.895,95.438,540.788,538.731,0.0
52455.0,STARLINK-3890,PAYLOAD,2023-11-15 03:32:08,15.08846385,0.0001515,53.2164,264.9059,104.0518,256.0643,0.00010173,1.332e-05,0.0,0 STARLINK-3890,1 52455U 22049E   23319.14732632  .00001332  00000-0  10173-3 0  9998,2 52455  53.2164 264.9059 0001515 104.0518 256.0643 15.08846385 84624,6917.861,95.437,540.774,538.678,0.0
52455.0,STARLINK-3890,PAYLOAD,2023-11-15 06:42:55,15.08847036,0.0001497,53.2164,264.3116,102.8137,257.3022,0.00011019,1.466e-05,0.0,0 STARLINK-3890,1 52455U 22049E   23319.27980584  .00001466  00000-0  11019-3 0  9991,2 52455  53.2164 264.3116 0001497 102.8137 257.3022 15.08847036 84487,6917.859,95.437,540.759,538.688,0.0
52455.0,STARLINK-3890,PAYLOAD,2023-11-16 00:12:10,15.08839239,0.0001521,53.2165,261.0408,106.3323,253.7836,9.7527e-06,-1.33e-06,0.0,0 STARLINK-3890,1 52455U 22049E   23320.00845093 -.00000133  00000-0  97527-5 0  9990,2 52455  53.2165 261.0408 0001521 106.3323 253.7836 15.08839239 84759,6917.883,95.438,540.8,538.696,0.0
52455.0,STARLINK-3890,PAYLOAD,2023-11-16 04:58:19,15.08842652,0.0001514,53.2163,260.1492,103.9888,256.1273,5.8737e-05,6.47e-06,0.0,0 STARLINK-3890,1 52455U 22049E   23320.20716883  .00000647  00000-0  58737-4 0  9994,2 52455  53.2163 260.1492 0001514 103.9888 256.1273 15.08842652 84622,6917.872,95.437,540.785,538.69,0.0
52455.0,STARLINK-3890,PAYLOAD,2023-11-17 04:49:06,15.08841741,0.000168,53.2172,255.689,109.0398,251.0776,3.7845e-05,3.14e-06,0.0,0 STARLINK-3890,1 52455U 22049E   23321.20077354  .00000314  00000-0  37845-4 0  9996,2 52455  53.2172 255.6890 0001680 109.0398 251.0776 15.08841741 84934,6917.875,95.437,540.902,538.578,0.0
52455.0,STARLINK-3890,PAYLOAD,2023-11-17 12:46:02,15.08839841,0.0001929,53.2181,254.2017,82.3322,277.7889,4.1221e-05,3.68e-06,0.0,0 STARLINK-3890,1 52455U 22049E   23321.53197671  .00000368  00000-0  41221-4 0  9999,2 52455  53.2181 254.2017 0001929  82.3322 277.7889 15.08839841 84822,6917.881,95.438,541.08,538.411,0.0
52455.0,STARLINK-3890,PAYLOAD,2023-11-18 03:04:31,15.08835625,0.0001579,53.2182,251.5273,87.0471,273.0701,-3.3378e-07,-2.93e-06,0.0,0 STARLINK-3890,1 52455U 22049E   23322.12814147 -.00000293  00000-0 -33378-6 0  9994,2 52455  53.2182 251.5273 0001579  87.0471 273.0701 15.08835625 85071,6917.894,95.438,540.851,538.666,0.0
52455.0,STARLINK-3890,PAYLOAD,2023-11-18 12:36:50,15.08819315,0.0001712,53.2186,249.7439,89.8615,270.2574,0.00031929,4.794e-05,0.0,0 STARLINK-3890,1 52455U 22049E   23322.52558617  .00004794  00000-0  31929-3 0  9990,2 52455  53.2186 249.7439 0001712  89.8615 270.2574 15.08819315 84970,6917.944,95.439,540.993,538.624,0.0
52455.0,STARLINK-3890,PAYLOAD,2023-11-19 02:55:17,15.08846145,0.0001428,53.2171,247.0676,92.6422,267.4734,7.2217e-05,8.62e-06,0.0,0 STARLINK-3890,1 52455U 22049E   23323.12173316  .00000862  00000-0  72217-4 0  9994,2 52455  53.2171 247.0676 0001428  92.6422 267.4734 15.08846145 85226,6917.862,95.437,540.714,538.739,0.0
52455.0,STARLINK-3890,PAYLOAD,2023-11-19 04:30:41,15.08823453,0.0001661,53.2171,246.7706,94.3348,265.7834,0.00045834,7.011e-05,0.0,0 STARLINK-3890,1 52455U 22049E   23323.18797859  .00007011  00000-0  45834-3 0  9991,2 52455  53.2171 246.7706 0001661  94.3348 265.7834 15.08823453 85231,6917.931,95.439,540.945,538.647,0.0
52455.0,STARLINK-3890,PAYLOAD,2023-11-19 12:27:36,15.08840953,0.0001606,53.2183,245.2834,83.3832,276.7342,7.6261e-05,9.26e-06,0.0,0 STARLINK-3890,1 52455U 22049E   23323.51917719  .00000926  00000-0  76261-4 0  9994,2 52455  53.2183 245.2834 0001606  83.3832 276.7342 15.08840953 85123,6917.877,95.437,540.853,538.631,0.0
52455.0,STARLINK-3890,PAYLOAD,2023-11-20 04:21:27,15.08845602,0.0001426,53.2169,242.308,91.8892,268.2263,0.00011958,1.616e-05,0.0,0 STARLINK-3890,1 52455U 22049E   23324.18157224  .00001616  00000-0  11958-3 0  9993,2 52455  53.2169 242.3080 0001426  91.8892 268.2263 15.08845602 85223,6917.863,95.437,540.715,538.742,0.0
52455.0,STARLINK-3890,PAYLOAD,2023-11-20 21:50:42,15.08845876,0.0001616,53.2177,239.0357,94.1945,265.9232,5.3292e-05,5.6e-06,0.0,0 STARLINK-3890,1 52455U 22049E   23324.91021205  .00000560  00000-0  53292-4 0  9998,2 52455  53.2177 239.0357 0001616  94.1945 265.9232 15.08845876 85333,6917.862,95.437,540.845,538.61,0.0
52455.0,STARLINK-3890,PAYLOAD,2023-11-21 01:01:28,15.08850577,0.0001597,53.2177,238.4403,96.7085,263.4089,6.0786e-05,6.8e-06,0.0,0 STARLINK-3890,1 52455U 22049E   23325.04268778  .00000680  00000-0  60786-4 0  9990,2 52455  53.2177 238.4403 0001597  96.7085 263.4089 15.08850577 85516,6917.848,95.437,540.818,538.608,0.0
52455.0,STARLINK-3890,PAYLOAD,2023-11-21 04:12:14,15.08846321,0.0001634,53.2178,237.8458,104.4151,255.7023,0.00016186,2.289e-05,0.0,0 STARLINK-3890,1 52455U 22049E   23325.17516791  .00002289  00000-0  16186-3 0  9996,2 52455  53.2178 237.8458 0001634 104.4151 255.7023 15.08846321 85371,6917.861,95.437,540.856,538.596,0.0
52455.0,STARLINK-3890,PAYLOAD,2023-11-21 18:30:43,15.08840678,0.0001657,53.2179,235.1697,97.1308,262.9873,1.5618e-05,-3.9e-07,0.0,0 STARLINK-3890,1 52455U 22049E   23325.77133603 -.00000039  00000-0  15618-4 0  9991,2 52455  53.2179 235.1697 0001657  97.1308 262.9873 15.08840678 85467,6917.878,95.438,540.89,538.597,0.0
52455.0,STARLINK-3890,PAYLOAD,2023-11-22 00:52:15,15.08844508,0.0001621,53.2175,233.9804,106.4168,253.7002,5.9648e-05,6.62e-06,0.0,0 STARLINK-3890,1 52455U 22049E   23326.03629222  .00000662  00000-0  59648-4 0  9990,2 52455  53.2175 233.9804 0001621 106.4168 253.7002 15.08844508 85668,6917.867,95.437,540.853,538.61,0.0
52455.0,STARLINK-3890,PAYLOAD,2023-11-22 21:32:16,15.08848779,0.0001464,53.2169,230.1172,96.0942,264.0217,5.643e-05,6.1e-06,0.0,0 STARLINK-3890,1 52455U 22049E   23326.89740995  .00000610  00000-0  56430-4 0  9994,2 52455  53.2169 230.1172 0001464  96.0942 264.0217 15.08848779 85631,6917.854,95.437,540.731,538.706,0.0
52455.0,STARLINK-3890,PAYLOAD,2023-11-23 00:43:02,15.08851517,0.0001548,53.2163,229.5227,97.9209,262.1959,0.00013151,1.806e-05,0.0,0 STARLINK-3890,1 52455U 22049E   23327.02988754  .00001806  00000-0  13151-3 0  9997,2 52455  53.2163 229.5227 0001548  97.9209 262.1959 15.08851517 85655,6917.845,95.437,540.781,538.639,0.0
52455.0,STARLINK-3890,PAYLOAD,2023-11-23 21:23:04,15.08830006,0.0001744,53.217,225.657,120.5166,239.5998,-8.0793e-05,-1.573e-05,0.0,0 STARLINK-3890,1 52455U 22049E   23327.89102034 -.00001573  00000-0 -80793-4 0  9991,2 52455  53.2170 225.6570 0001744 120.5166 239.5998 15.08830006 85789,6917.911,95.438,540.982,538.569,0.0
52455.0,STARLINK-3890,PAYLOAD,2023-11-23 22:58:27,15.08830041,0.0001537,53.2168,225.3623,110.6319,249.4838,-4.6108e-05,-1.022e-05,0.0,0 STARLINK-3890,1 52455U 22049E   23327.95726198 -.00001022  00000-0 -46108-4 0  9992,2 52455  53.2168 225.3623 0001537 110.6319 249.4838 15.08830041 85953,6917.911,95.438,540.839,538.713,0.0
52455.0,STARLINK-3890,PAYLOAD,2023-11-24 21:13:51,15.08839011,0.000157,53.2168,221.1989,121.3503,238.7643,-3.939e-05,-9.15e-06,0.0,0 STARLINK-3890,1 52455U 22049E   23328.88462247 -.00000915  00000-0 -39390-4 0  9992,2 52455  53.2168 221.1989 0001570 121.3503 238.7643 15.08839011 85932,6917.883,95.438,540.835,538.662,0.0
52455.0,STARLINK-3890,PAYLOAD,2023-11-25 02:00:00,15.08844143,0.0001519,53.2164,220.3007,113.1925,246.9227,0.0002641,3.918e-05,0.0,0 STARLINK-3890,1 52455U 22049E   23329.08334201  .00003918  00000-0  26410-3 0  9995,2 52455  53.2164 220.3007 0001519 113.1925 246.9227 15.08844143 86123,6917.868,95.437,540.784,538.682,0.0
52455.0,STARLINK-3890,PAYLOAD,2023-11-25 21:04:37,15.0886034,0.0001589,53.2152,216.7346,130.6456,229.4674,0.00065072,0.00010089,0.0,0 STARLINK-3890,1 52455U 22049E   23329.87821685  .00010089  00000-0  65072-3 0  9993,2 52455  53.2152 216.7346 0001589 130.6456 229.4674 15.08860340 86089,6917.818,95.436,540.782,538.584,0.0
52455.0,STARLINK-3890,PAYLOAD,2023-11-26 01:50:46,15.0889842,0.0001364,53.2153,215.8427,107.2795,252.8347,0.0020758,0.00032956,0.0,0 STARLINK-3890,1 52455U 22049E   23330.07693052  .00032956  00000-0  20758-2 0  9990,2 52455  53.2153 215.8427 0001364 107.2795 252.8347 15.08898420 86275,6917.702,95.434,540.51,538.623,0.0
52455.0,STARLINK-3890,PAYLOAD,2023-11-26 16:09:15,15.08837003,0.0001581,53.2151,213.1684,100.2296,259.8874,0.00058895,9.097e-05,0.0,0 STARLINK-3890,1 52455U 22049E   23330.67309976  .00009097  00000-0  58895-3 0  9999,2 52455  53.2151 213.1684 0001581 100.2296 259.8874 15.08837003 86361,6917.89,95.438,540.848,538.661,0.0
